OTTER                   
1 62623U 25009Q   26068.72300813  .00012198  00000+0  45151-3 0  9990
2 62623  97.4065 151.3812 0003573 310.7710  49.3219 15.27809545 63722
STARLINK-36105          
1 66850U 25281C   26068.16551601  .00030319  00000+0  11062-2 0  9997
2 66850  43.0051 346.5850 0001890 259.7852 100.2787 15.27596539 16102
